     2              NAVIGATION DATA                         RINEX VERSION / TYPE
CCRINEXN V1.6.0 UX  CDDIS               19-DEC-16 17:31     PGM / RUN BY / DATE 
IGS BROADCAST EPHEMERIS FILE                                COMMENT             
    0.8382D-08 -0.1490D-07 -0.5960D-07  0.1192D-06          ION ALPHA           
    0.9421D+05 -0.1311D+06 -0.1311D+06  0.8520D+06          ION BETA            
   -0.931322574615D-09-0.532907051820D-14   233472     1928 DELTA-UTC: A0,A1,T,W
    17                                                      LEAP SECONDS        
                                                            END OF HEADER       
21 16 12 18 20  0  0.0-0.528354663402D-03 0.125055521494D-11 0.000000000000D+00
    0.660000000000D+02-0.736562500000D+02 0.507056835238D-08-0.782286466423D+00
   -0.364705920219D-05 0.235548994970D-01 0.794604420662D-05 0.515377522850D+04
    0.720000000000D+05-0.312924385071D-06 0.327120212201D+00 0.286847352982D-06
    0.938462614940D+00 0.220218750000D+03-0.173228489847D+01-0.874929301460D-08
    0.446447167745D-10 0.100000000000D+01 0.192800000000D+04 0.000000000000D+00
    0.400000000000D+01 0.000000000000D+00-0.977888703346D-08 0.660000000000D+02
    0.648000000000D+05 0.400000000000D+01 0.000000000000D+00 0.000000000000D+00
23 16 12 18 20  0  0.0-0.200127251446D-03-0.113686837722D-11 0.000000000000D+00
    0.260000000000D+02 0.202812500000D+02 0.541379696628D-08 0.182416796984D+01
    0.106915831566D-05 0.111472521676D-01 0.620447099209D-05 0.515356106186D+04
    0.720000000000D+05-0.264495611191D-06 0.244962115665D+01 0.596046447754D-07
    0.944939062996D+00 0.256062500000D+03-0.251905706671D+01-0.849713988060D-08
   -0.857178564240D-11 0.100000000000D+01 0.192800000000D+04 0.000000000000D+00
    0.200000000000D+01 0.000000000000D+00-0.200234353542D-07 0.260000000000D+02
    0.648000000000D+05 0.000000000000D+00 0.000000000000D+00 0.000000000000D+00
25 16 12 18 20  0  0.0-0.302077736705D-03-0.682121026330D-11 0.000000000000D+00
    0.108000000000D+03 0.617812500000D+02 0.401802450971D-08-0.849073549721D+00
    0.315345823765D-05 0.581502623390D-02 0.751949846744D-05 0.515366322327D+04
    0.720000000000D+05 0.931322574615D-07-0.173139065615D+01 0.104308128357D-06
    0.977777596202D+00 0.244500000000D+03 0.752069163499D+00-0.795533137148D-08
   -0.464305054455D-11 0.100000000000D+01 0.192800000000D+04 0.000000000000D+00
    0.280000000000D+01 0.000000000000D+00 0.558793544769D-08 0.108000000000D+03
    0.703200000000D+05 0.400000000000D+01 0.000000000000D+00 0.000000000000D+00
26 16 12 18 20  0  0.0-0.511839985848D-03-0.295585778076D-11 0.000000000000D+00
    0.790000000000D+02 0.756875000000D+02 0.439518288431D-08-0.119876809908D+01
    0.393576920033D-05 0.141581159551D-02 0.758841633797D-05 0.515362709045D+04
    0.720000000000D+05-0.670552253723D-07-0.174399501642D+01-0.279396772385D-07
    0.959650086741D+00 0.235531250000D+03-0.189662186820D+00-0.803997757259D-08
    0.450018737552D-10 0.100000000000D+01 0.192800000000D+04 0.000000000000D+00
    0.200000000000D+01 0.000000000000D+00 0.745058059692D-08 0.790000000000D+02
    0.648000000000D+05 0.000000000000D+00 0.000000000000D+00 0.000000000000D+00
27 16 12 18 20  0  0.0 0.181164126843D-03 0.545696821064D-11 0.000000000000D+00
    0.410000000000D+02-0.990625000000D+01 0.436161025000D-08 0.312608485005D+01
   -0.439584255218D-06 0.405295263045D-02 0.315532088280D-05 0.515365570831D+04
    0.720000000000D+05 0.186264514923D-07-0.690743735632D+00-0.763684511185D-07
    0.973511251634D+00 0.326781250000D+03 0.292852675747D+00-0.821605651745D-08
    0.125005206969D-09 0.100000000000D+01 0.192800000000D+04 0.000000000000D+00
    0.200000000000D+01 0.000000000000D+00 0.139698386192D-08 0.410000000000D+02
    0.648000000000D+05 0.400000000000D+01 0.000000000000D+00 0.000000000000D+00
28 16 12 18 20  0  0.0 0.575365033001D-03 0.284217094304D-11 0.000000000000D+00
    0.310000000000D+02 0.859375000000D+02 0.362407952889D-08-0.236878484302D+01
    0.439770519733D-05 0.201381747611D-01 0.807456672192D-05 0.515364239311D+04
    0.720000000000D+05 0.271946191788D-06-0.165444376478D+01 0.391155481338D-07
    0.988948687351D+00 0.236250000000D+03-0.159064107679D+01-0.741495171965D-08
    0.166078346401D-09 0.100000000000D+01 0.192800000000D+04 0.000000000000D+00
    0.200000000000D+01 0.000000000000D+00-0.111758708954D-07 0.310000000000D+02
    0.648000000000D+05 0.400000000000D+01 0.000000000000D+00 0.000000000000D+00
29 16 12 18 20  0  0.0 0.638072378933D-03-0.204636307899D-11 0.000000000000D+00
    0.830000000000D+02-0.194062500000D+02 0.420767526656D-08-0.969575987372D+00
   -0.916421413422D-06 0.538201304153D-03 0.372342765331D-05 0.515370211983D+04
    0.720000000000D+05-0.372529029846D-08-0.629715110436D+00-0.745058059692D-08
    0.979669335069D+00 0.318843750000D+03-0.186373368502D+00-0.813605318499D-08
    0.421446126351D-10 0.100000000000D+01 0.192800000000D+04 0.000000000000D+00
    0.200000000000D+01 0.000000000000D+00-0.102445483208D-07 0.830000000000D+02
    0.648180000000D+05 0.400000000000D+01 0.000000000000D+00 0.000000000000D+00
30 16 12 18 20  0  0.0 0.159303657711D-03 0.568434188608D-12 0.000000000000D+00
    0.690000000000D+02 0.809375000000D+01 0.477162732886D-08 0.272739214032D+00
    0.292435288429D-06 0.236777530517D-02 0.907666981220D-05 0.515373831940D+04
    0.720000000000D+05 0.111758708954D-07-0.271754764230D+01-0.484287738800D-07
    0.950174539589D+00 0.195937500000D+03 0.312616352432D+01-0.819498421113D-08
   -0.516450083648D-09 0.100000000000D+01 0.192800000000D+04 0.000000000000D+00
    0.200000000000D+01 0.000000000000D+00 0.372529029846D-08 0.690000000000D+02
    0.648000000000D+05 0.400000000000D+01 0.000000000000D+00 0.000000000000D+00
31 16 12 18 20  0  0.0 0.230296980590D-03-0.227373675443D-11 0.000000000000D+00
    0.600000000000D+02 0.946875000000D+01 0.434696678290D-08 0.108394145588D+00
    0.366941094399D-06 0.852624408435D-02 0.881403684616D-05 0.515361569595D+04
    0.720000000000D+05 0.875443220139D-07-0.274851300546D+01-0.335276126862D-07
    0.969207311535D+00 0.214812500000D+03-0.329844715722D+00-0.802211986778D-08
   -0.445732852277D-09 0.100000000000D+01 0.192800000000D+04 0.000000000000D+00
    0.200000000000D+01 0.000000000000D+00-0.135041773319D-07 0.600000000000D+02
    0.701400000000D+05 0.400000000000D+01 0.000000000000D+00 0.000000000000D+00
32 16 12 18 20  0  0.0-0.245949719101D-03-0.156887836056D-10 0.000000000000D+00
    0.480000000000D+02 0.235312500000D+02 0.496127808572D-08-0.245117140069D+01
    0.130385160446D-05 0.609720358625D-03 0.585615634918D-05 0.515366879845D+04
    0.720000000000D+05 0.298023223877D-07 0.244870711958D+01-0.409781932831D-07
    0.958585693879D+00 0.264968750000D+03-0.268230247427D+01-0.823748598150D-08
   -0.317870383435D-10 0.100000000000D+01 0.192800000000D+04 0.000000000000D+00
    0.200000000000D+01 0.000000000000D+00 0.465661287308D-09 0.480000000000D+02
    0.648000000000D+05 0.400000000000D+01 0.000000000000D+00 0.000000000000D+00
 6 16 12 18 21 59 44.0 0.287719536573D-03 0.500222085975D-11 0.000000000000D+00
    0.300000000000D+01-0.102468750000D+03 0.425374861427D-08 0.234583104978D+01
   -0.521354377270D-05 0.419313902967D-03 0.821985304356D-05 0.515358720970D+04
    0.791840000000D+05 0.409781932831D-07 0.358108464175D+00 0.447034835815D-07
    0.966099194321D+00 0.222156250000D+03-0.145612076793D+01-0.798926135623D-08
   -0.800033324599D-10 0.100000000000D+01 0.192800000000D+04 0.000000000000D+00
    0.200000000000D+01 0.000000000000D+00 0.419095158577D-08 0.300000000000D+01
    0.751500000000D+05 0.400000000000D+01 0.000000000000D+00 0.000000000000D+00
10 16 12 18 21 59 44.0-0.115892384201D-03 0.341060513165D-12 0.000000000000D+00
    0.000000000000D+00-0.200000000000D+01 0.449625871579D-08-0.665573890681D-01
   -0.800937414169D-07 0.200108753052D-02 0.967830419540D-05 0.515367902374D+04
    0.791840000000D+05 0.260770320892D-07 0.140456157488D+01 0.931322574616D-08
    0.959346977430D+00 0.192750000000D+03-0.295218501744D+01-0.796604610351D-08
    0.332156692802D-09 0.100000000000D+01 0.192800000000D+04 0.000000000000D+00
    0.200000000000D+01 0.000000000000D+00 0.232830643654D-08 0.000000000000D+00
    0.752100000000D+05 0.400000000000D+01 0.000000000000D+00 0.000000000000D+00
13 16 12 18 21 59 44.0-0.606784597039D-04-0.193267624127D-11 0.000000000000D+00
    0.280000000000D+02 0.183750000000D+02 0.468376652625D-08 0.236417841096D+01
    0.853091478348D-06 0.405504379887D-02 0.649318099022D-05 0.515368075180D+04
    0.791840000000D+05 0.428408384323D-07 0.257003805455D+01-0.372529029846D-07
    0.970348848456D+00 0.259281250000D+03 0.187005462634D+01-0.802676291832D-08
   -0.514307137242D-10 0.100000000000D+01 0.192800000000D+04 0.000000000000D+00
    0.200000000000D+01 0.000000000000D+00-0.111758708954D-07 0.280000000000D+02
    0.720000000000D+05 0.400000000000D+01 0.000000000000D+00 0.000000000000D+00
20 16 12 18 21 59 44.0 0.451399013400D-03 0.181898940355D-11 0.000000000000D+00
    0.140000000000D+02-0.120000000000D+02 0.523450375238D-08-0.307296318882D+01
   -0.774860382080D-06 0.476098048966D-02 0.100545585156D-04 0.515361596680D+04
    0.791840000000D+05 0.106170773506D-06 0.131660652048D+01 0.186264514923D-08
    0.926231924912D+00 0.164562500000D+03 0.151442391237D+01-0.823820029697D-08
    0.346443002170D-09 0.100000000000D+01 0.192800000000D+04 0.000000000000D+00
    0.200000000000D+01 0.000000000000D+00-0.838190317154D-08 0.140000000000D+02
    0.767100000000D+05 0.400000000000D+01 0.000000000000D+00 0.000000000000D+00
